#aV2020  5 20  0  0  0.00000000     288 DD+AD WGS84 FIT  NGA
## 2106 259200.00000000   300.00000000 58989 0.0000000000000
+   32     1  2  3  4  5  6  7  8  9 10 11 12 13 14 15 16 17
+         18 19 20 21 22 23 24 25 26 27 28 29 30 31 32  0  0
+          0  0  0  0  0  0  0  0  0  0  0  0  0  0  0  0  0
+          0  0  0  0  0  0  0  0  0  0  0  0  0  0  0  0  0
+          0  0  0  0  0  0  0  0  0  0  0  0  0  0  0  0  0
++         2  2  2  2  2  2  2  2  2  2  2  2  2  2  2  2  2
++         2  2  2  2  2  2  2  2  2  2  2  2  2  2  2  0  0
++         0  0  0  0  0  0  0  0  0  0  0  0  0  0  0  0  0
++         0  0  0  0  0  0  0  0  0  0  0  0  0  0  0  0  0
++         0  0  0  0  0  0  0  0  0  0  0  0  0  0  0  0  0
%c cc cc ccc ccc cccc cccc cccc cccc ccccc ccccc ccccc ccccc
%c cc cc ccc ccc cccc cccc cccc cccc ccccc ccccc ccccc ccccc
%f  0.0000000  0.000000000  0.00000000000  0.000000000000000
%f  0.0000000  0.000000000  0.00000000000  0.000000000000000
%i    0    0    0    0      0      0      0      0         0
%i    0    0    0    0      0      0      0      0         0
/*      NGA, ST. LOUIS,MO.                                  
/*   EPHEMERIS COMPUTED FROM 2 DAYS OF DATA                 
/*   EPOCHA v5 SMOOTHER                                     
/*   G1762 IERS2010 SATAF SATAPC                            
*  2020  5 20  3  5  0.00000000
P  1 -13496.752011  21405.843745  -7686.102455   -382.573732                    
V  1  -8262.605734   5270.270297  30378.687690     -0.056723                    
P  2  20354.073210 -11127.514995 -12247.077506   -458.699035                    
V  2  -8592.825591  14428.480656 -26103.294821     -0.061675                    
P  3  -6531.148501  13892.205400 -21723.235794   -181.323354                    
V  3 -26592.213910  -6787.043571   3766.237681     -0.123407                    
P  4  -1730.942721  24071.141300 -11045.110509    -91.613228                    
V  4  -5944.600278 -12978.285134 -27351.136901     -0.049864                    
P  5  24071.919631  -2934.541572  10926.430888    -13.002847                    
V  5  13210.549247   5359.457588 -27127.216955     -0.007442                    
P  6  17803.602677    401.060453 -19665.861779   -274.602708                    
V  6 -16511.034415  18828.467403 -14479.357648     -0.067032                    
P  7   2672.001998  17531.639832  19925.943277   -285.090268                    
V  7 -18315.728801  16799.937207 -13003.238507     -0.087105                    
P  8  -8990.970833  15735.822567  19338.276092    -34.596148                    
V  8  -8574.684286 -23082.702639  15056.299196     -0.013225                    
P  9   7455.511441  25475.839344   -659.904479   -220.607496                    
V  9  -3191.200034    176.365947 -31565.441537     -0.072504                    
P 10 -22212.742933 -11740.512397   9060.467710   -346.228454                    
V 10  11515.123840    444.390234  28860.409670     -0.115281                    
P 11 -12191.421196  22694.388739   6600.359590   -272.443330                    
V 11  -1153.203232  -9751.063597  28917.290933      0.106888                    
P 12   8124.504451 -12931.022425 -21952.113932    115.917898                    
V 12  25887.621986   8590.989707   4723.705343     -0.044168                    
P 13  13649.194823  -7643.959500  21333.737965     11.387041                    
V 13   4927.329147  26917.823576   6546.454950      0.030689                    
P 14 -15651.123080  -8585.448540 -19378.276431    -11.797778                    
V 14  -3982.406889 -25020.658631  13867.750340      0.026159                    
P 15   7677.583422 -17217.998085  18250.817255   -230.030830                    
V 15  11225.440112  21401.048018  15585.897756      0.025992                    
P 16 -23411.557319   1117.375400  12696.148623   -160.262305                    
V 16 -14912.097727  -6712.916291 -26018.971043     -0.045573                    
P 17  13659.040747  17706.360884 -13945.886859    267.497218                    
V 17   2517.195238  18275.101965  24877.411904      0.060182                    
P 18  -1385.993286 -17859.607840  19596.076983    195.106475                    
V 18  18448.152266 -16762.107663 -13984.229200      0.118324                    
P 19  15206.808345   9983.164062 -19661.608211   -156.477235                    
V 19   3527.662756  24014.525405  15134.550346      0.050816                    
P 20 -13353.857372 -14588.822097  17748.753054    527.665472                    
V 20  22781.409037    416.131089  17186.467349     -0.000801                    
P 21  -6004.387324 -16157.914353  21052.344710      0.854651                    
V 21  16485.609382 -18754.327386  -9784.849042      0.049144                    
P 22 -15953.736371  11038.517862 -17859.843619   -781.698032                    
V 22 -22686.385568  -5634.551029  16717.065959      0.013555                    
P 23   9307.009314  24615.337446   1836.087446   -112.785946                    
V 23  -2917.069241   2943.143509 -31497.782710      0.030913                    
P 24  13447.507049 -22085.333807  -5345.028176    -13.257511                    
V 24   7138.493322  -2668.332742  30453.239732     -0.004687                    
P 25  -3298.728250 -15941.384985 -21273.126115      5.496020                    
V 25  25774.041867   5699.634501  -8102.208117      0.031471                    
P 26 -26277.606406  -4426.148815   1318.848450    209.680681                    
V 26  -1056.834906  -3351.928276 -31236.178786      0.071427                    
P 27 -14156.949166   4218.659333  21930.455203   -298.333960                    
V 27  -8134.247446 -26937.185732    258.849195     -0.101453                    
P 28  21649.797301  13226.148502   8181.119323    715.940797                    
V 28  -9788.619007  -1091.926454  29938.955212     -0.032581                    
P 29  -3215.604913 -26087.281824  -3763.380274   -108.388033                    
V 29   2987.368328   4168.990462 -31840.839288     -0.087954                    
P 30  12475.264907   9697.938366  21399.390308   -223.842823                    
V 30 -19245.447086  19151.732477   2330.757288     -0.081822                    
P 31 -19176.165053    664.243621 -18592.123333    -43.552342                    
V 31  15665.620161 -17394.352580 -16368.092557     -0.025440                    
P 32 -15510.122027 -16008.591476 -14471.844675    283.937136                    
V 32  -3317.349254 -18294.241194  23511.191166      0.075338                    
EOF
